start=new Date('2023-06-16T00:00:00.000Z').valueOf();
sats=[{"TLE_LINE1":"1 47178U 20088BJ  23166.23054706  .00005076  00000-0  35950-3 0  9993","TIME_SYSTEM":"UTC","REF_FRAME":"TEME","ARG_OF_PERICENTER":"82.5390","ELEMENT_SET_NO":"999","REV_AT_EPOCH":"14134","PERIAPSIS":"546.553","EPOCH":"2023-06-15T05:31:59.265984","FILE":"3933820","DECAY_DATE":null,"LAUNCH_DATE":"2020-11-25","MEAN_ANOMALY":"277.5714","MEAN_ELEMENT_THEORY":"SGP4","COUNTRY_CODE":"US","MEAN_MOTION_DDOT":"0.0000000000000","RCS_SIZE":"LARGE","NORAD_CAT_ID":"47178","SEMIMAJOR_AXIS":"6925.386","BSTAR":"0.00035950000000","OBJECT_TYPE":"PAYLOAD","MEAN_MOTION":"15.06387842","RA_OF_ASC_NODE":"103.8733","EPHEMERIS_TYPE":"0","TLE_LINE2":"2 47178  53.0534 103.8733 0001007  82.5390 277.5714 15.06387842141349","SITE":"AFETR","APOAPSIS":"547.948","CENTER_NAME":"EARTH","OBJECT_NAME":"STARLINK-1912","ECCENTRICITY":"0.00010070","CLASSIFICATION_TYPE":"U","INCLINATION":"53.0534","MEAN_MOTION_DOT":"0.00005076","PERIOD":"95.593","GP_ID":"233984022","OBJECT_ID":"2020-088BJ"},{"REF_FRAME":"TEME","TIME_SYSTEM":"UTC","TLE_LINE1":"1 47179U 20088BK  23166.21856188 -.00000411  00000-0 -87147-5 0  9993","PERIAPSIS":"546.337","REV_AT_EPOCH":"14120","ELEMENT_SET_NO":"999","ARG_OF_PERICENTER":"96.7507","MEAN_ELEMENT_THEORY":"SGP4","MEAN_ANOMALY":"263.3632","LAUNCH_DATE":"2020-11-25","DECAY_DATE":null,"EPOCH":"2023-06-15T05:14:43.746432","FILE":"3933820","NORAD_CAT_ID":"47179","MEAN_MOTION_DDOT":"0.0000000000000","RCS_SIZE":"LARGE","COUNTRY_CODE":"US","TLE_LINE2":"2 47179  53.0539 113.9282 0001317  96.7507 263.3632 15.06388257141205","EPHEMERIS_TYPE":"0","RA_OF_ASC_NODE":"113.9282","MEAN_MOTION":"15.06388257","BSTAR":"-0.00000871470000","OBJECT_TYPE":"PAYLOAD","SEMIMAJOR_AXIS":"6925.385","CENTER_NAME":"EARTH","APOAPSIS":"548.162","SITE":"AFETR","CLASSIFICATION_TYPE":"U","OBJECT_NAME":"STARLINK-1913","ECCENTRICITY":"0.00013170","OBJECT_ID":"2020-088BK","GP_ID":"233984773","PERIOD":"95.593","MEAN_MOTION_DOT":"-0.00000411","INCLINATION":"53.0539"},{"MEAN_ANOMALY":"277.8541","MEAN_ELEMENT_THEORY":"SGP4","EPOCH":"2023-06-15T01:26:36.130560","FILE":"3933820","LAUNCH_DATE":"2020-11-25","DECAY_DATE":null,"MEAN_MOTION_DDOT":"0.0000000000000","RCS_SIZE":"LARGE","NORAD_CAT_ID":"47181","COUNTRY_CODE":"US","REF_FRAME":"TEME","TLE_LINE1":"1 47181U 20088BM  23166.06014040  .00045439  00000-0  21391-2 0  9995","TIME_SYSTEM":"UTC","PERIAPSIS":"504.896","REV_AT_EPOCH":"14169","ELEMENT_SET_NO":"999","ARG_OF_PERICENTER":"82.3053","ECCENTRICITY":"0.00052810","OBJECT_NAME":"STARLINK-1927","CLASSIFICATION_TYPE":"U","GP_ID":"233985024","OBJECT_ID":"2020-088BM","INCLINATION":"53.0548","MEAN_MOTION_DOT":"0.00045439","PERIOD":"94.792","RA_OF_ASC_NODE":"77.6931","MEAN_MOTION":"15.19109479","TLE_LINE2":"2 47181  53.0548  77.6931 0005281  82.3053 277.8541 15.19109479141699","EPHEMERIS_TYPE":"0","SEMIMAJOR_AXIS":"6886.668","OBJECT_TYPE":"PAYLOAD","BSTAR":"0.00213910000000","SITE":"AFETR","APOAPSIS":"512.170","CENTER_NAME":"EARTH"},{"ARG_OF_PERICENTER":"79.2584","ELEMENT_SET_NO":"999","REV_AT_EPOCH":"13258","PERIAPSIS":"546.530","TLE_LINE1":"1 47350U 21005B   23166.42957258  .00002765  00000-0  20442-3 0  9992","TIME_SYSTEM":"UTC","REF_FRAME":"TEME","COUNTRY_CODE":"US","MEAN_MOTION_DDOT":"0.0000000000000","RCS_SIZE":"LARGE","NORAD_CAT_ID":"47350","FILE":"3933820","EPOCH":"2023-06-15T10:18:35.070912","DECAY_DATE":null,"LAUNCH_DATE":"2021-01-20","MEAN_ANOMALY":"280.8512","MEAN_ELEMENT_THEORY":"SGP4","SITE":"AFETR","CENTER_NAME":"EARTH","APOAPSIS":"547.852","SEMIMAJOR_AXIS":"6925.326","OBJECT_TYPE":"PAYLOAD","BSTAR":"0.00020442000000","MEAN_MOTION":"15.06407388","RA_OF_ASC_NODE":"222.9807","TLE_LINE2":"2 47350  53.0528 222.9807 0000955  79.2584 280.8512 15.06407388132585","EPHEMERIS_TYPE":"0","MEAN_MOTION_DOT":"0.00002765","INCLINATION":"53.0528","PERIOD":"95.592","GP_ID":"233984536","OBJECT_ID":"2021-005B","OBJECT_NAME":"STARLINK-2011","ECCENTRICITY":"0.00009550","CLASSIFICATION_TYPE":"U"},{"ARG_OF_PERICENTER":"72.1854","ELEMENT_SET_NO":"999","REV_AT_EPOCH":"13312","PERIAPSIS":"546.695","TIME_SYSTEM":"UTC","TLE_LINE1":"1 47351U 21005C   23166.32542644 -.00000183  00000-0  66056-5 0  9997","REF_FRAME":"TEME","COUNTRY_CODE":"US","NORAD_CAT_ID":"47351","MEAN_MOTION_DDOT":"0.0000000000000","RCS_SIZE":"LARGE","LAUNCH_DATE":"2021-01-20","DECAY_DATE":null,"FILE":"3933820","EPOCH":"2023-06-15T07:48:36.844416","MEAN_ELEMENT_THEORY":"SGP4","MEAN_ANOMALY":"287.9218","APOAPSIS":"547.751","CENTER_NAME":"EARTH","SITE":"AFETR","BSTAR":"0.00000660560000","OBJECT_TYPE":"PAYLOAD","SEMIMAJOR_AXIS":"6925.358","EPHEMERIS_TYPE":"0","TLE_LINE2":"2 47351  53.0538 183.4393 0000762  72.1854 287.9218 15.06396893133126","MEAN_MOTION":"15.06396893","RA_OF_ASC_NODE":"183.4393","PERIOD":"95.592","INCLINATION":"53.0538","MEAN_MOTION_DOT":"-0.00000183","OBJECT_ID":"2021-005C","GP_ID":"233984286","CLASSIFICATION_TYPE":"U","ECCENTRICITY":"0.00007620","OBJECT_NAME":"STARLINK-2017"},{"DECAY_DATE":null,"LAUNCH_DATE":"2021-01-20","EPOCH":"2023-06-15T13:03:07.778592","FILE":"3933820","MEAN_ELEMENT_THEORY":"SGP4","MEAN_ANOMALY":"275.7928","COUNTRY_CODE":"US","NORAD_CAT_ID":"47352","MEAN_MOTION_DDOT":"0.0000000000000","RCS_SIZE":"LARGE","TIME_SYSTEM":"UTC","TLE_LINE1":"1 47352U 21005D   23166.54384003  .00010362  00000-0  71334-3 0  9997","REF_FRAME":"TEME","ARG_OF_PERICENTER":"84.3173","ELEMENT_SET_NO":"999","REV_AT_EPOCH":"13259","PERIAPSIS":"546.508","CLASSIFICATION_TYPE":"U","ECCENTRICITY":"0.00009820","OBJECT_NAME":"STARLINK-2034","PERIOD":"95.592","INCLINATION":"53.0533","MEAN_MOTION_DOT":"0.00010362","OBJECT_ID":"2021-005D","GP_ID":"233985538","OBJECT_TYPE":"PAYLOAD","BSTAR":"0.00071334000000","SEMIMAJOR_AXIS":"6925.323","TLE_LINE2":"2 47352  53.0533 222.4690 0000982  84.3173 275.7928 15.06408335132597","EPHEMERIS_TYPE":"0","MEAN_MOTION":"15.06408335","RA_OF_ASC_NODE":"222.4690","APOAPSIS":"547.868","CENTER_NAME":"EARTH","SITE":"AFETR"},{"INCLINATION":"53.0533","MEAN_MOTION_DOT":"0.00000306","PERIOD":"95.592","GP_ID":"234017757","OBJECT_ID":"2021-005E","ECCENTRICITY":"0.00010060","OBJECT_NAME":"STARLINK-2045","CLASSIFICATION_TYPE":"U","SITE":"AFETR","APOAPSIS":"547.917","CENTER_NAME":"EARTH","SEMIMAJOR_AXIS":"6925.356","BSTAR":"0.00003942700000","OBJECT_TYPE":"PAYLOAD","RA_OF_ASC_NODE":"166.7738","MEAN_MOTION":"15.06397703","TLE_LINE2":"2 47353  53.0533 166.7738 0001006  93.7023 266.4080 15.06397703133398","EPHEMERIS_TYPE":"0","COUNTRY_CODE":"US","RCS_SIZE":"LARGE","MEAN_MOTION_DDOT":"0.0000000000000","NORAD_CAT_ID":"47353","FILE":"3934071","EPOCH":"2023-06-15T16:45:23.319648","LAUNCH_DATE":"2021-01-20","DECAY_DATE":null,"MEAN_ANOMALY":"266.4080","MEAN_ELEMENT_THEORY":"SGP4","ELEMENT_SET_NO":"999","ARG_OF_PERICENTER":"93.7023","PERIAPSIS":"546.524","REV_AT_EPOCH":"13339","TLE_LINE1":"1 47353U 21005E   23166.69818657  .00000306  00000-0  39427-4 0  9996","TIME_SYSTEM":"UTC","REF_FRAME":"TEME"},{"COUNTRY_CODE":"US","MEAN_MOTION_DDOT":"0.0000000000000","RCS_SIZE":"LARGE","NORAD_CAT_ID":"47354","FILE":"3933820","EPOCH":"2023-06-15T09:06:16.386048","DECAY_DATE":null,"LAUNCH_DATE":"2021-01-20","MEAN_ELEMENT_THEORY":"SGP4","MEAN_ANOMALY":"267.7097","ARG_OF_PERICENTER":"92.4022","ELEMENT_SET_NO":"999","REV_AT_EPOCH":"13306","PERIAPSIS":"546.432","TLE_LINE1":"1 47354U 21005F   23166.37935632 -.00000234  00000-0  32022-5 0  9991","TIME_SYSTEM":"UTC","REF_FRAME":"TEME","INCLINATION":"53.0530","MEAN_MOTION_DOT":"-0.00000234","PERIOD":"95.592","GP_ID":"233984036","OBJECT_ID":"2021-005F","OBJECT_NAME":"STARLINK-2046","ECCENTRICITY":"0.00011310","CLASSIFICATION_TYPE":"U","SITE":"AFETR","CENTER_NAME":"EARTH","APOAPSIS":"547.999","SEMIMAJOR_AXIS":"6925.350","BSTAR":"0.00000320220000","OBJECT_TYPE":"PAYLOAD","MEAN_MOTION":"15.06399383","RA_OF_ASC_NODE":"188.2061","EPHEMERIS_TYPE":"0","TLE_LINE2":"2 47354  53.0530 188.2061 0001131  92.4022 267.7097 15.06399383133060"},{"SITE":"AFETR","APOAPSIS":"547.858","CENTER_NAME":"EARTH","SEMIMAJOR_AXIS":"6925.376","OBJECT_TYPE":"PAYLOAD","BSTAR":"0.00003145000000","RA_OF_ASC_NODE":"171.6225","MEAN_MOTION":"15.06391125","TLE_LINE2":"2 47355  53.0535 171.6225 0000891  87.3916 272.7175 15.06391125133329","EPHEMERIS_TYPE":"0","INCLINATION":"53.0535","MEAN_MOTION_DOT":"0.00000187","PERIOD":"95.593","GP_ID":"234017258","OBJECT_ID":"2021-005G","OBJECT_NAME":"STARLINK-2047","ECCENTRICITY":"0.00008910","CLASSIFICATION_TYPE":"U","ELEMENT_SET_NO":"999","ARG_OF_PERICENTER":"87.3916","PERIAPSIS":"546.624","REV_AT_EPOCH":"13332","TLE_LINE1":"1 47355U 21005G   23166.73274721  .00000187  00000-0  31450-4 0  9996","TIME_SYSTEM":"UTC","REF_FRAME":"TEME","COUNTRY_CODE":"US","MEAN_MOTION_DDOT":"0.0000000000000","RCS_SIZE":"LARGE","NORAD_CAT_ID":"47355","FILE":"3934071","EPOCH":"2023-06-15T17:35:09.358944","LAUNCH_DATE":"2021-01-20","DECAY_DATE":null,"MEAN_ANOMALY":"272.7175","MEAN_ELEMENT_THEORY":"SGP4"},{"ARG_OF_PERICENTER":"90.4187","ELEMENT_SET_NO":"999","REV_AT_EPOCH":"13299","PERIAPSIS":"546.445","TLE_LINE1":"1 47356U 21005H   23166.38073614 -.00000569  00000-0 -19282-4 0  9991","TIME_SYSTEM":"UTC","REF_FRAME":"TEME","COUNTRY_CODE":"US","RCS_SIZE":"LARGE","MEAN_MOTION_DDOT":"0.0000000000000","NORAD_CAT_ID":"47356","FILE":"3933820","EPOCH":"2023-06-15T09:08:15.602496","LAUNCH_DATE":"2021-01-20","DECAY_DATE":null,"MEAN_ANOMALY":"269.6928","MEAN_ELEMENT_THEORY":"SGP4","SITE":"AFETR","CENTER_NAME":"EARTH","APOAPSIS":"547.962","SEMIMAJOR_AXIS":"6925.338","BSTAR":"-0.00001928200000","OBJECT_TYPE":"PAYLOAD","MEAN_MOTION":"15.06403367","RA_OF_ASC_NODE":"193.2030","EPHEMERIS_TYPE":"0","TLE_LINE2":"2 47356  53.0535 193.2030 0001095  90.4187 269.6928 15.06403367132991","MEAN_MOTION_DOT":"-0.00000569","INCLINATION":"53.0535","PERIOD":"95.592","GP_ID":"233985038","OBJECT_ID":"2021-005H","OBJECT_NAME":"STARLINK-2049","ECCENTRICITY":"0.00010950","CLASSIFICATION_TYPE":"U"}];
